start=new Date('2023-07-02T00:00:00.000Z').valueOf();
sats=[{"RCS_SIZE":"LARGE","ELEMENT_SET_NO":"999","EPHEMERIS_TYPE":"0","MEAN_ELEMENT_THEORY":"SGP4","BSTAR":"0.00092786000000","REV_AT_EPOCH":"12785","MEAN_MOTION_DDOT":"0.0000000000000","TIME_SYSTEM":"UTC","REF_FRAME":"TEME","OBJECT_ID":"2021-021P","ECCENTRICITY":"0.00011370","OBJECT_TYPE":"PAYLOAD","ARG_OF_PERICENTER":"84.5028","NORAD_CAT_ID":"47873","EPOCH":"2023-07-01T18:01:18.119424","PERIAPSIS":"546.323","CENTER_NAME":"EARTH","DECAY_DATE":null,"GP_ID":"234656302","FILE":"3947025","APOAPSIS":"547.898","TLE_LINE2":"2 47873  53.0550 349.7172 0001137  84.5028 275.6090 15.06433599127858","RA_OF_ASC_NODE":"349.7172","INCLINATION":"53.0550","OBJECT_NAME":"STARLINK-2329","PERIOD":"95.590","SITE":"AFETR","CLASSIFICATION_TYPE":"U","SEMIMAJOR_AXIS":"6925.246","TLE_LINE1":"1 47873U 21021P   23182.75090416  .00013578  00000-0  92786-3 0  9992","COUNTRY_CODE":"US","MEAN_MOTION_DOT":"0.00013578","MEAN_ANOMALY":"275.6090","LAUNCH_DATE":"2021-03-14","MEAN_MOTION":"15.06433599"},{"TLE_LINE1":"1 47874U 21021Q   23182.76059361  .00014888  00000-0  10155-2 0  9992","SEMIMAJOR_AXIS":"6925.261","CLASSIFICATION_TYPE":"U","SITE":"AFETR","PERIOD":"95.590","MEAN_MOTION":"15.06428624","LAUNCH_DATE":"2021-03-14","MEAN_ANOMALY":"278.5720","MEAN_MOTION_DOT":"0.00014888","COUNTRY_CODE":"US","FILE":"3947025","GP_ID":"234656804","DECAY_DATE":null,"CENTER_NAME":"EARTH","PERIAPSIS":"546.313","EPOCH":"2023-07-01T18:15:15.287904","OBJECT_NAME":"STARLINK-2330","RA_OF_ASC_NODE":"304.6828","INCLINATION":"53.0551","TLE_LINE2":"2 47874  53.0551 304.6828 0001173  81.5402 278.5720 15.06428624128486","APOAPSIS":"547.938","ARG_OF_PERICENTER":"81.5402","OBJECT_TYPE":"PAYLOAD","ECCENTRICITY":"0.00011730","OBJECT_ID":"2021-021Q","REF_FRAME":"TEME","TIME_SYSTEM":"UTC","NORAD_CAT_ID":"47874","EPHEMERIS_TYPE":"0","ELEMENT_SET_NO":"999","RCS_SIZE":"LARGE","MEAN_MOTION_DDOT":"0.0000000000000","REV_AT_EPOCH":"12848","BSTAR":"0.00101550000000","MEAN_ELEMENT_THEORY":"SGP4"},{"MEAN_ANOMALY":"270.4816","MEAN_MOTION":"15.06402268","LAUNCH_DATE":"2021-03-14","COUNTRY_CODE":"US","MEAN_MOTION_DOT":"0.00004642","CLASSIFICATION_TYPE":"U","SEMIMAJOR_AXIS":"6925.342","TLE_LINE1":"1 47875U 21021R   23182.21186215  .00004642  00000-0  33030-3 0  9997","PERIOD":"95.592","SITE":"AFETR","OBJECT_NAME":"STARLINK-2331","TLE_LINE2":"2 47875  53.0546   2.1342 0001438  89.6338 270.4816 15.06402268127632","APOAPSIS":"548.202","RA_OF_ASC_NODE":"2.1342","INCLINATION":"53.0546","PERIAPSIS":"546.211","EPOCH":"2023-07-01T05:05:04.889760","GP_ID":"234650036","DECAY_DATE":null,"FILE":"3946777","CENTER_NAME":"EARTH","NORAD_CAT_ID":"47875","ARG_OF_PERICENTER":"89.6338","OBJECT_TYPE":"PAYLOAD","TIME_SYSTEM":"UTC","ECCENTRICITY":"0.00014380","OBJECT_ID":"2021-021R","REF_FRAME":"TEME","REV_AT_EPOCH":"12763","BSTAR":"0.00033030000000","MEAN_MOTION_DDOT":"0.0000000000000","MEAN_ELEMENT_THEORY":"SGP4","EPHEMERIS_TYPE":"0","ELEMENT_SET_NO":"999","RCS_SIZE":"LARGE"},{"MEAN_MOTION_DDOT":"0.0000000000000","REV_AT_EPOCH":"12758","BSTAR":"0.00025266000000","MEAN_ELEMENT_THEORY":"SGP4","EPHEMERIS_TYPE":"0","ELEMENT_SET_NO":"999","RCS_SIZE":"LARGE","NORAD_CAT_ID":"47876","ARG_OF_PERICENTER":"84.7230","OBJECT_TYPE":"PAYLOAD","OBJECT_ID":"2021-021S","ECCENTRICITY":"0.00011780","REF_FRAME":"TEME","TIME_SYSTEM":"UTC","OBJECT_NAME":"STARLINK-2332","RA_OF_ASC_NODE":"3.6759","INCLINATION":"53.0549","TLE_LINE2":"2 47876  53.0549   3.6759 0001178  84.7230 275.3893 15.06392312127583","APOAPSIS":"548.053","FILE":"3946777","GP_ID":"234650035","DECAY_DATE":null,"CENTER_NAME":"EARTH","PERIAPSIS":"546.421","EPOCH":"2023-06-30T20:51:27.809568","MEAN_MOTION":"15.06392312","LAUNCH_DATE":"2021-03-14","MEAN_ANOMALY":"275.3893","MEAN_MOTION_DOT":"0.00003483","COUNTRY_CODE":"US","TLE_LINE1":"1 47876U 21021S   23181.86907187  .00003483  00000-0  25266-3 0  9991","SEMIMAJOR_AXIS":"6925.372","CLASSIFICATION_TYPE":"U","SITE":"AFETR","PERIOD":"95.593"},{"NORAD_CAT_ID":"47877","OBJECT_ID":"2021-021T","ECCENTRICITY":"0.00009890","REF_FRAME":"TEME","TIME_SYSTEM":"UTC","ARG_OF_PERICENTER":"90.2795","OBJECT_TYPE":"PAYLOAD","MEAN_ELEMENT_THEORY":"SGP4","MEAN_MOTION_DDOT":"0.0000000000000","REV_AT_EPOCH":"12771","BSTAR":"0.00108070000000","RCS_SIZE":"LARGE","EPHEMERIS_TYPE":"0","ELEMENT_SET_NO":"999","MEAN_MOTION_DOT":"0.00015857","COUNTRY_CODE":"US","MEAN_MOTION":"15.06411626","LAUNCH_DATE":"2021-03-14","MEAN_ANOMALY":"269.8307","SITE":"AFETR","PERIOD":"95.591","TLE_LINE1":"1 47877U 21021T   23182.74632457  .00015857  00000-0  10807-2 0  9997","SEMIMAJOR_AXIS":"6925.313","CLASSIFICATION_TYPE":"U","RA_OF_ASC_NODE":"359.7303","INCLINATION":"53.0545","TLE_LINE2":"2 47877  53.0545 359.7303 0000989  90.2795 269.8307 15.06411626127710","APOAPSIS":"547.863","OBJECT_NAME":"STARLINK-2333","GP_ID":"234656744","FILE":"3947022","DECAY_DATE":null,"CENTER_NAME":"EARTH","PERIAPSIS":"546.493","EPOCH":"2023-07-01T17:54:42.442848"},{"RCS_SIZE":"LARGE","ELEMENT_SET_NO":"999","EPHEMERIS_TYPE":"0","MEAN_ELEMENT_THEORY":"SGP4","BSTAR":"0.00049156000000","REV_AT_EPOCH":"12759","MEAN_MOTION_DDOT":"0.0000000000000","TIME_SYSTEM":"UTC","REF_FRAME":"TEME","OBJECT_ID":"2021-021U","ECCENTRICITY":"0.00011600","OBJECT_TYPE":"PAYLOAD","ARG_OF_PERICENTER":"88.2051","NORAD_CAT_ID":"47878","EPOCH":"2023-06-30T21:28:37.031520","PERIAPSIS":"546.425","CENTER_NAME":"EARTH","GP_ID":"234641684","FILE":"3946411","DECAY_DATE":null,"APOAPSIS":"548.031","TLE_LINE2":"2 47878  53.0544   3.5568 0001160  88.2051 271.9071 15.06395301127590","RA_OF_ASC_NODE":"3.5568","INCLINATION":"53.0544","OBJECT_NAME":"STARLINK-2335","PERIOD":"95.592","SITE":"AFETR","CLASSIFICATION_TYPE":"U","SEMIMAJOR_AXIS":"6925.363","TLE_LINE1":"1 47878U 21021U   23181.89487305  .00007047  00000-0  49156-3 0  9995","COUNTRY_CODE":"US","MEAN_MOTION_DOT":"0.00007047","MEAN_ANOMALY":"271.9071","LAUNCH_DATE":"2021-03-14","MEAN_MOTION":"15.06395301"},{"NORAD_CAT_ID":"47879","TIME_SYSTEM":"UTC","REF_FRAME":"TEME","OBJECT_ID":"2021-021V","ECCENTRICITY":"0.00011030","OBJECT_TYPE":"PAYLOAD","ARG_OF_PERICENTER":"92.8775","MEAN_ELEMENT_THEORY":"SGP4","BSTAR":"0.00071246000000","REV_AT_EPOCH":"12750","MEAN_MOTION_DDOT":"0.0000000000000","RCS_SIZE":"LARGE","ELEMENT_SET_NO":"999","EPHEMERIS_TYPE":"0","COUNTRY_CODE":"US","MEAN_MOTION_DOT":"0.00010352","MEAN_ANOMALY":"267.2340","LAUNCH_DATE":"2021-03-14","MEAN_MOTION":"15.06418833","PERIOD":"95.591","SITE":"AFETR","CLASSIFICATION_TYPE":"U","TLE_LINE1":"1 47879U 21021V   23182.75414490  .00010352  00000-0  71246-3 0  9995","SEMIMAJOR_AXIS":"6925.291","APOAPSIS":"547.920","TLE_LINE2":"2 47879  53.0552  14.6977 0001103  92.8775 267.2340 15.06418833127502","INCLINATION":"53.0552","RA_OF_ASC_NODE":"14.6977","OBJECT_NAME":"STARLINK-2336","EPOCH":"2023-07-01T18:05:58.119360","PERIAPSIS":"546.392","CENTER_NAME":"EARTH","DECAY_DATE":null,"GP_ID":"234656800","FILE":"3947025"},{"REV_AT_EPOCH":"12758","BSTAR":"0.00115070000000","MEAN_MOTION_DDOT":"0.0000000000000","MEAN_ELEMENT_THEORY":"SGP4","EPHEMERIS_TYPE":"0","ELEMENT_SET_NO":"999","RCS_SIZE":"LARGE","NORAD_CAT_ID":"47880","ARG_OF_PERICENTER":"93.8820","OBJECT_TYPE":"PAYLOAD","TIME_SYSTEM":"UTC","ECCENTRICITY":"0.00013930","OBJECT_ID":"2021-021W","REF_FRAME":"TEME","OBJECT_NAME":"STARLINK-2337","TLE_LINE2":"2 47880  53.0546   9.5201 0001393  93.8820 266.2328 15.06415402127585","APOAPSIS":"548.131","RA_OF_ASC_NODE":"9.5201","INCLINATION":"53.0546","PERIAPSIS":"546.202","EPOCH":"2023-07-01T19:02:22.588800","GP_ID":"234656308","FILE":"3947032","DECAY_DATE":null,"CENTER_NAME":"EARTH","MEAN_ANOMALY":"266.2328","MEAN_MOTION":"15.06415402","LAUNCH_DATE":"2021-03-14","COUNTRY_CODE":"US","MEAN_MOTION_DOT":"0.00016907","CLASSIFICATION_TYPE":"U","TLE_LINE1":"1 47880U 21021W   23182.79331700  .00016907  00000-0  11507-2 0  9998","SEMIMAJOR_AXIS":"6925.301","PERIOD":"95.591","SITE":"AFETR"},{"CENTER_NAME":"EARTH","DECAY_DATE":null,"GP_ID":"234646828","FILE":"3946610","EPOCH":"2023-06-30T21:21:58.336128","PERIAPSIS":"546.338","RA_OF_ASC_NODE":"13.5788","INCLINATION":"53.0551","APOAPSIS":"548.108","TLE_LINE2":"2 47881  53.0551  13.5788 0001278  88.3342 271.7793 15.06396777127442","OBJECT_NAME":"STARLINK-2339","SITE":"AFETR","PERIOD":"95.592","TLE_LINE1":"1 47881U 21021X   23181.89025852  .00002847  00000-0  20994-3 0  9996","SEMIMAJOR_AXIS":"6925.358","CLASSIFICATION_TYPE":"U","MEAN_MOTION_DOT":"0.00002847","COUNTRY_CODE":"US","LAUNCH_DATE":"2021-03-14","MEAN_MOTION":"15.06396777","MEAN_ANOMALY":"271.7793","RCS_SIZE":"LARGE","ELEMENT_SET_NO":"999","EPHEMERIS_TYPE":"0","MEAN_ELEMENT_THEORY":"SGP4","MEAN_MOTION_DDOT":"0.0000000000000","BSTAR":"0.00020994000000","REV_AT_EPOCH":"12744","REF_FRAME":"TEME","ECCENTRICITY":"0.00012780","OBJECT_ID":"2021-021X","TIME_SYSTEM":"UTC","OBJECT_TYPE":"PAYLOAD","ARG_OF_PERICENTER":"88.3342","NORAD_CAT_ID":"47881"},{"CLASSIFICATION_TYPE":"U","SEMIMAJOR_AXIS":"6925.295","TLE_LINE1":"1 47882U 21021Y   23182.79423071  .00009283  00000-0  64094-3 0  9992","PERIOD":"95.591","SITE":"AFETR","MEAN_ANOMALY":"281.2545","LAUNCH_DATE":"2021-03-14","MEAN_MOTION":"15.06417478","COUNTRY_CODE":"US","MEAN_MOTION_DOT":"0.00009283","EPOCH":"2023-07-01T19:03:41.533344","PERIAPSIS":"546.649","CENTER_NAME":"EARTH","GP_ID":"234660613","DECAY_DATE":null,"FILE":"3947170","OBJECT_NAME":"STARLINK-2340","APOAPSIS":"547.671","TLE_LINE2":"2 47882  53.0548 359.5184 0000738  78.8527 281.2545 15.06417478127725","INCLINATION":"53.0548","RA_OF_ASC_NODE":"359.5184","OBJECT_TYPE":"PAYLOAD","ARG_OF_PERICENTER":"78.8527","TIME_SYSTEM":"UTC","REF_FRAME":"TEME","ECCENTRICITY":"0.00007380","OBJECT_ID":"2021-021Y","NORAD_CAT_ID":"47882","ELEMENT_SET_NO":"999","EPHEMERIS_TYPE":"0","RCS_SIZE":"LARGE","BSTAR":"0.00064094000000","REV_AT_EPOCH":"12772","MEAN_MOTION_DDOT":"0.0000000000000","MEAN_ELEMENT_THEORY":"SGP4"}];
